[{"OBJECT_NAME":"CBERS 4","OBJECT_ID":"2014-079A","EPOCH":"2026-03-09T23:48:34.091136","MEAN_MOTION":14.35413289,"ECCENTRICITY":6.249e-5,"INCLINATION":98.3477,"RA_OF_ASC_NODE":128.9942,"ARG_OF_PERICENTER":63.727,"MEAN_ANOMALY":296.398,"EPHEMERIS_TYPE":0,"CLASSIFICATION_TYPE":"U","NORAD_CAT_ID":40336,"ELEMENT_SET_NO":999,"REV_AT_EPOCH":58972,"BSTAR":4.6050106e-5,"MEAN_MOTION_DOT":9.0e-7,"MEAN_MOTION_DDOT":0},{"OBJECT_NAME":"THOR ABLESTAR DEB","OBJECT_ID":"1961-015E","EPOCH":"2026-03-09T21:14:31.464096","MEAN_MOTION":14.29453487,"ECCENTRICITY":0.01040399,"INCLINATION":66.7071,"RA_OF_ASC_NODE":331.0959,"ARG_OF_PERICENTER":75.668,"MEAN_ANOMALY":285.5942,"EPHEMERIS_TYPE":0,"CLASSIFICATION_TYPE":"U","NORAD_CAT_ID":120,"ELEMENT_SET_NO":999,"REV_AT_EPOCH":33413,"BSTAR":0.00039695554,"MEAN_MOTION_DOT":9.91e-6,"MEAN_MOTION_DDOT":0}]
